[{"OBJECT_NAME":"LUR-1","OBJECT_ID":"2024-149AQ","EPOCH":"2026-03-09T19:05:45.284064","MEAN_MOTION":15.28658648,"ECCENTRICITY":0.00027765,"INCLINATION":97.379,"RA_OF_ASC_NODE":148.4255,"ARG_OF_PERICENTER":309.1571,"MEAN_ANOMALY":50.9421,"EPHEMERIS_TYPE":0,"CLASSIFICATION_TYPE":"U","NORAD_CAT_ID":60506,"ELEMENT_SET_NO":999,"REV_AT_EPOCH":8678,"BSTAR":0.0003298462,"MEAN_MOTION_DOT":9.121e-5,"MEAN_MOTION_DDOT":0},{"OBJECT_NAME":"STARLINK-34066","OBJECT_ID":"2025-095V","EPOCH":"2026-03-09T08:17:16.405728","MEAN_MOTION":15.27642769,"ECCENTRICITY":0.00034442,"INCLINATION":43.0035,"RA_OF_ASC_NODE":178.2952,"ARG_OF_PERICENTER":288.9698,"MEAN_ANOMALY":71.078,"EPHEMERIS_TYPE":0,"CLASSIFICATION_TYPE":"U","NORAD_CAT_ID":63909,"ELEMENT_SET_NO":999,"REV_AT_EPOCH":4772,"BSTAR":0.0016071899,"MEAN_MOTION_DOT":0.0004432,"MEAN_MOTION_DDOT":0}]
